TYVAK-182A              
1 48271U 21034D   26068.71131789  .00007163  00000+0  50673-3 0  9991
2 48271  97.5843 129.3711 0004862 316.5650  43.5193 15.05150420264864
STARLINK-34957          
1 65388U 25191K   26068.62320742  .00002162  00000+0  15399-3 0  9996
2 65388  97.6022 301.5273 0001967  62.8793 297.2634 15.05648240 30266
